FLOCK 2P-12             
1 41614U 16040R   17301.13525342  .00007747  00000-0  33052-3 0  9995
2 41614  97.4484   3.0881 0009912 346.1919  13.9045 15.23151342 74907
FLOCK 2P-7              
1 41615U 16040S   17301.16786949  .00008966  00000-0  38157-3 0  9996
2 41615  97.4473   2.9639 0010065 346.1222  13.9736 15.23186382 74902
FLOCK 2P-5              
1 41616U 16040T   17301.14621858  .00007430  00000-0  31707-3 0  9991
2 41616  97.4486   3.0729 0009836 345.7424  14.3534 15.23158458 74883
FLOCK 2P-1              
1 41617U 16040U   17301.39714014  .00008445  00000-0  35946-3 0  9992
2 41617  97.4488   3.3529 0009665 344.5192  15.5748 15.23201041 74940
FLOCK 2P-3              
1 41618U 16040V   17301.42542562  .00005926  00000-0  25363-3 0  9997
2 41618  97.4486   3.3059 0009792 345.4224  14.6729 15.23148601 74945
BEESAT-4                
1 41619U 16040W   17300.75527617  .00003362  00000-0  15306-3 0  9995
2 41619  97.4474   1.7945 0010925 331.7261  28.3380 15.21337914 62743
3CAT-2                  
1 41732U 16051B   17301.44361399  .00002714  00000-0  11014-3 0  9995
2 41732  97.3727 216.4519 0014087 155.7612 294.3987 15.25382081 66840
FLOCK 2E'-13            
1 41761U 98067KH  17301.40532837  .00017039  00000-0  18085-3 0  9998
2 41761  51.6365  78.5410 0005580  40.4752 319.6657 15.64183471 63738
FLOCK 2E'-14            
1 41762U 98067KJ  17301.55893652  .00018860  00000-0  19596-3 0  9991
2 41762  51.6373  77.3555 0005095  40.5572 319.5802 15.64645389 63762
FLOCK 2E'-16            
1 41763U 98067KK  17301.54824678  .00020249  00000-0  20431-3 0  9997
2 41763  51.6378  76.5315 0004448  52.3725 307.7674 15.65338447 63733
FLOCK 2E'-15            
1 41764U 98067KL  17301.55354444  .00016951  00000-0  18084-3 0  9994
2 41764  51.6374  78.0644 0005186  47.9291 312.2145 15.64059023 63711
FLOCK 2E'-18            
1 41769U 98067KM  17301.47108762  .00017139  00000-0  18236-3 0  9998
2 41769  51.6375  78.2567 0004110  72.5637 287.5806 15.64122295 63706
FLOCK 2E'-17            
1 41776U 98067KN  17301.51846594  .00018441  00000-0  19411-3 0  9996
2 41776  51.6384  77.8533 0004330  72.7464 287.4004 15.64336465 63701
FLOCK 2E'-19            
1 41777U 98067KP  17301.56307636  .00032063  00000-0  28217-3 0  9991
2 41777  51.6358  72.0670 0002940  65.1283 295.0019 15.68457835 63746
FLOCK 2E'-20            
1 41782U 98067KQ  17301.44700301  .00026013  00000-0  24140-3 0  9999
2 41782  51.6369  74.3390 0002968  65.4555 294.6750 15.67268745 63570
CANX-7                  
1 41788U 16059F   17301.43241940  .00009632  00000-0  17368-2 0  9995
2 41788  98.1874   2.5580 0034917 115.0740 245.4111 14.66315719 58104
ALSAT 1N                
1 41789U 16059G   17301.41943648  .00000151  00000-0  37829-4 0  9991
2 41789  98.1528   2.0684 0029861  96.0026 264.4580 14.64092554 58106
RAVAN                   
1 41849U 16067B   17300.76056412  .00001812  00000-0  16145-3 0  9990
2 41849  97.9404  20.9874 0008240 210.3118 149.7627 14.97308247 52346
CELTEE 1                
1 41850U 16067C   17301.17962556  .00001074  00000-0  99463-4 0  9998
2 41850  97.9405  21.2046 0008100 206.1662 153.9151 14.96666501 52399
OPTICUBE 04             
1 41851U 16067D   17301.19237374  .00000203  00000-0  23181-4 0  9991
2 41851  97.9405  21.1861 0008002 209.0001 151.0776 14.96567774 52398
AEROCUBE 8D             
1 41852U 16067E   17301.19726113  .00000228  00000-0  25534-4 0  9997
2 41852  97.9416  21.0709 0008881 209.9444 150.1269 14.96324716 52389
AEROCUBE 8C             
1 41853U 16067F   17301.27272314  .00000063  00000-0  10996-4 0  9999
2 41853  97.9413  21.1254 0009351 211.9080 148.1575 14.96285663 52390
PROMETHEUS 2-1          
1 41854U 16067G   17301.22218246  .00000899  00000-0  84869-4 0  9996
2 41854  97.9412  21.0444 0009909 211.5887 148.4739 14.96298183 52385
PROMETHEUS 2-3          
1 41855U 16067H   17301.22423828  .00000975  00000-0  91619-4 0  9997
2 41855  97.9413  21.0465 0010096 211.7611 148.3002 14.96291977 52382
LEMUR-2-XIAOQING        
1 41871U 16062C   17301.04621171  .00004152  00000-0  18740-3 0  9995
2 41871  51.6338 175.5977 0004626 350.1752 151.0359 15.23124297 51186
LEMUR-2-SOKOLSKY        
1 41872U 16062D   17301.47383701  .00005332  00000-0  23570-3 0  9995
2 41872  51.6727 173.4040 0005367  11.2724  49.4183 15.23264203 51248
LEMUR-2-ANUBHAVTHAKUR   
1 41873U 16062E   17301.11327976  .00001764  00000-0  90696-4 0  9998
2 41873  51.6461 176.6218 0004999   3.9860 153.3659 15.21929379 51158
LEMUR-2-WINGO           
1 41874U 16062F   17301.46550207  .00004373  00000-0  19856-3 0  9999
2 41874  51.6413 173.8935 0005004 343.4290  82.8792 15.22782422 51238
STARS-C                 
1 41895U 98067KR  17301.47489551  .00084871  00000-0  60584-3 0  9996
2 41895  51.6333  77.4813 0000752  32.9858 327.1188 15.73051699 48872
ITF-2                   
1 41932U 98067KU  17300.83649369  .00030727  00000-0  32003-3 0  9998
2 41932  51.6387  86.8025 0004017  40.3185 319.8107 15.64271596 44264
WASEDA-SAT3             
1 41933U 98067KV  17300.67436226  .00035794  00000-0  35077-3 0  9990
2 41933  51.6367  86.4294 0003648  39.2939 320.8321 15.65732305 44250
AOBA-VELOX 3            
1 41935U 98067KX  17300.84456192  .00032729  00000-0  32799-3 0  9998
2 41935  51.6385  86.0957 0003312  41.4239 318.7006 15.65216174 44370
OSNSAT                  
1 41939U 98067KZ  17301.40511849  .00125923  00000-0  70848-3 0  9992
2 41939  51.6345  73.9853 0004153   1.1095 358.9914 15.78318957 43837
FLOCK 3P-8              
1 41951U 17008D   17300.90465314  .00002764  00000-0  11916-3 0  9999
2 41951  97.4811   1.8182 0010067  89.1349 271.1042 15.23373558 38730
FLOCK 3P-51             
1 41952U 17008E   17300.94055821  .00002446  00000-0  10575-3 0  9999
2 41952  97.4817   1.9438 0010031 104.4131 255.8220 15.23396805 38741
FLOCK 3P-37             
1 41953U 17008F   17300.88163246  .00005353  00000-0  22463-3 0  9993
2 41953  97.4816   2.0135 0009256 108.7538 251.4704 15.23866021 38743
INS-1B                  
1 41954U 17008G   17300.88213523  .00003074  00000-0  13648-3 0  9991
2 41954  97.4786   1.4705 0011284  88.9493 271.3036 15.22270476 38650
FLOCK 3P-19             
1 41955U 17008H   17301.51077733  .00002414  00000-0  10432-3 0  9999
2 41955  97.4807   2.3737 0010915  87.0872 273.1614 15.23410415 38743
FLOCK 3P-24             
1 41956U 17008J   17300.91616301  .00006757  00000-0  28582-3 0  9992
2 41956  97.4804   1.7879 0010642  86.6159 273.6295 15.23486068 38737
FLOCK 3P-18             
1 41957U 17008K   17300.91691134  .00005679  00000-0  24088-3 0  9999
2 41957  97.4804   1.7905 0010744  88.0215 272.2252 15.23464601 38579
FLOCK 3P-22             
1 41958U 17008L   17300.92360272  .00002505  00000-0  10822-3 0  9993
2 41958  97.4807   1.7843 0010586  88.2987 271.9462 15.23394109 38569
FLOCK 3P-21             
1 41959U 17008M   17301.17561706  .00002820  00000-0  12160-3 0  9994
2 41959  97.4814   2.0755 0010449  89.1561 271.0873 15.23345207 38618
FLOCK 3P-28             
1 41960U 17008N   17300.91109947  .00003209  00000-0  13794-3 0  9998
2 41960  97.4811   1.8103 0010362  88.4145 271.8278 15.23350773 38650
FLOCK 3P-26             
1 41961U 17008P   17301.18179717  .00002813  00000-0  12104-3 0  9995
2 41961  97.4810   2.0589 0010555  86.8489 273.3955 15.23417544 38613
FLOCK 3P-17             
1 41962U 17008Q   17300.90067502  .00002918  00000-0  12573-3 0  9999
2 41962  97.4810   1.8228 0010373  90.2299 270.0126 15.23347115 38527
FLOCK 3P-27             
1 41963U 17008R   17301.38791232  .00002479  00000-0  10714-3 0  9994
2 41963  97.4810   2.2458 0010703  86.7850 273.4611 15.23379380 38646
FLOCK 3P-25             
1 41964U 17008S   17301.17645273  .00002439  00000-0  10559-3 0  9998
2 41964  97.4809   2.0620 0010331  87.5828 272.6591 15.23349609 38598
FLOCK 3P-4              
1 41965U 17008T   17301.17083892  .00002640  00000-0  11400-3 0  9992
2 41965  97.4811   2.0781 0010256  88.7573 271.4838 15.23354603 38698
FLOCK 3P-2              
1 41966U 17008U   17301.17173903  .00002704  00000-0  11671-3 0  9997
2 41966  97.4813   2.0824 0010145  87.2911 272.9486 15.23351911 38612
FLOCK 3P-1              
1 41967U 17008V   17300.86368828  .00004868  00000-0  20877-3 0  9996
2 41967  97.4815   1.7331 0010225  89.9386 270.3022 15.23170675 38566
FLOCK 3P-3              
1 41968U 17008W   17300.91184953  .00002769  00000-0  11947-3 0  9994
2 41968  97.4810   1.8094 0010237  88.5292 271.7117 15.23344331 38655
FLOCK 3P-6              
1 41969U 17008X   17300.90638897  .00002645  00000-0  11422-3 0  9996
2 41969  97.4813   1.8248 0010038  88.2037 272.0350 15.23358862 38560
FLOCK 3P-7              
1 41970U 17008Y   17301.47927008  .00002281  00000-0  98870-4 0  9995
2 41970  97.4815   2.4399 0010128  89.1985 271.0412 15.23369968 38657
FLOCK 3P-5              
1 41971U 17008Z   17300.90371874  .00002680  00000-0  11578-3 0  9999
2 41971  97.4816   1.8347 0010110  90.7128 269.5268 15.23333735 38501
FLOCK 3P-12             
1 41972U 17008AA  17300.90230111  .00002724  00000-0  11757-3 0  9996
2 41972  97.4814   1.8348 0009938  90.9212 269.3163 15.23347806 38655
FLOCK 3P-9              
1 41973U 17008AB  17300.90563116  .00004609  00000-0  19681-3 0  9999
2 41973  97.4815   1.8348 0010093  89.0906 271.1487 15.23347640 38656
FLOCK 3P-10             
1 41974U 17008AC  17301.48560967  .00002397  00000-0  10364-3 0  9996
2 41974  97.4818   2.4422 0009904  88.8024 271.4348 15.23407831 38622
FLOCK 3P-11             
1 41975U 17008AD  17301.49825763  .00003150  00000-0  13535-3 0  9997
2 41975  97.4816   2.4219 0010173  87.7496 272.4906 15.23377394 38515
FLOCK 3P-60             
1 41976U 17008AE  17300.88320082  .00002893  00000-0  12449-3 0  9990
2 41976  97.4819   1.8701 0009826  91.5474 268.6888 15.23399241 37903
